{"type": "FeatureCollection", "features": [ {"type": "Feature", "properties": {"norad_id": 66389, "name": "STARLINK-35694", "group": "last-30-days", "lat": -32.86635659822345, "lon": 144.01381867627703, "alt_km": 458.97887527561033, "timestamp": "2025-12-06T05:40:08.010086+00:00", "meta": {"OBJECT_NAME": "STARLINK-35694", "OBJECT_ID": "2025-257K", "EPOCH": "2025-12-05T06:00:02.000160", "MEAN_MOTION": 15.40841747, "ECCENTRICITY": 0.00013438, "INCLINATION": 53.1605, "RA_OF_ASC_NODE": 299.6854, "ARG_OF_PERICENTER": 52.8042, "MEAN_ANOMALY": 102.7935, "EPHEMERIS_TYPE": 0, "CLASSIFICATION_TYPE": "U", "NORAD_CAT_ID": 66389, "ELEMENT_SET_NO": 999, "REV_AT_EPOCH": 529, "BSTAR": -0.045871034, "MEAN_MOTION_DOT": -0.01729888, "MEAN_MOTION_DDOT": 0}, "tle": {"line1": "1 66389U 25257K   25339.25002315 -.01729888  00000+0 -45871-1 0  9993", "line2": "2 66389  53.1605 299.6854 0001343  52.8042 102.7935 15.40841747  5293"}}, "geometry": {"type": "Point", "coordinates": [144.01381867627703, -32.86635659822345]}}, {"type": "Feature", "properties": {"norad_id": 66390, "name": "STARLINK-35665", "group": "last-30-days", "lat": -29.616318713236108, "lon": -90.38757485965954, "alt_km": 422.32350887516986, "timestamp": "2025-12-06T05:40:08.010097+00:00", "meta": {"OBJECT_NAME": "STARLINK-35665", "OBJECT_ID": "2025-257L", "EPOCH": "2025-12-05T06:36:44.126208", "MEAN_MOTION": 15.49334501, "ECCENTRICITY": 0.00012, "INCLINATION": 53.1591, "RA_OF_ASC_NODE": 299.4348, "ARG_OF_PERICENTER": 91.9759, "MEAN_ANOMALY": 268.1387, "EPHEMERIS_TYPE": 0, "CLASSIFICATION_TYPE": "U", "NORAD_CAT_ID": 66390, "ELEMENT_SET_NO": 999, "REV_AT_EPOCH": 532, "BSTAR": 0.002256951, "MEAN_MOTION_DOT": 0.00127252, "MEAN_MOTION_DDOT": 0}, "tle": {"line1": "1 66390U 25257L   25339.27551072  .00127252  00000+0  22570-2 0  9992", "line2": "2 66390  53.1591 299.4348 0001200  91.9759 268.1387 15.49334501  5322"}}, "geometry": {"type": "Point", "coordinates": [-90.38757485965954, -29.616318713236108]}}, {"type": "Feature", "properties": {"norad_id": 66391, "name": "STARLINK-35656", "group": "last-30-days", "lat": -36.9651230322636, "lon": 149.36394635799152, "alt_km": 446.42583720009407, "timestamp": "2025-12-06T05:40:08.010107+00:00", "meta": {"OBJECT_NAME": "STARLINK-35656", "OBJECT_ID": "2025-257M", "EPOCH": "2025-12-05T03:46:18.556608", "MEAN_MOTION": 15.40317588, "ECCENTRICITY": 9.833e-05, "INCLINATION": 53.1603, "RA_OF_ASC_NODE": 300.1096, "ARG_OF_PERICENTER": 171.4639, "MEAN_ANOMALY": 188.6383, "EPHEMERIS_TYPE": 0, "CLASSIFICATION_TYPE": "U", "NORAD_CAT_ID": 66391, "ELEMENT_SET_NO": 999, "REV_AT_EPOCH": 530, "BSTAR": 0.0098522303, "MEAN_MOTION_DOT": 0.00426205, "MEAN_MOTION_DDOT": 0}, "tle": {"line1": "1 66391U 25257M   25339.15715922  .00426205  00000+0  98522-2 0  9996", "line2": "2 66391  53.1603 300.1096 0000983 171.4639 188.6383 15.40317588  5302"}}, "geometry": {"type": "Point", "coordinates": [149.36394635799152, -36.9651230322636]}}, {"type": "Feature", "properties": {"norad_id": 66392, "name": "STARLINK-35671", "group": "last-30-days", "lat": -15.730338679717866, "lon": 127.27703367661354, "alt_km": 449.59168246738045, "timestamp": "2025-12-06T05:40:08.010118+00:00", "meta": {"OBJECT_NAME": "STARLINK-35671", "OBJECT_ID": "2025-257N", "EPOCH": "2025-12-05T06:00:02.000160", "MEAN_MOTION": 15.39528813, "ECCENTRICITY": 0.00022622, "INCLINATION": 53.1608, "RA_OF_ASC_NODE": 299.7349, "ARG_OF_PERICENTER": 108.3291, "MEAN_ANOMALY": 22.2237, "EPHEMERIS_TYPE": 0, "CLASSIFICATION_TYPE": "U", "NORAD_CAT_ID": 66392, "ELEMENT_SET_NO": 999, "REV_AT_EPOCH": 529, "BSTAR": 0.0023889068, "MEAN_MOTION_DOT": 0.0009608, "MEAN_MOTION_DDOT": 0}, "tle": {"line1": "1 66392U 25257N   25339.25002315  .00096080  00000+0  23889-2 0  9991", "line2": "2 66392  53.1608 299.7349 0002262 108.3291  22.2237 15.39528813  5299"}}, "geometry": {"type": "Point", "coordinates": [127.27703367661354, -15.730338679717866]}}, {"type": "Feature", "properties": {"norad_id": 66393, "name": "STARLINK-35652", "group": "last-30-days", "lat": -48.566328586950966, "lon": 173.13455093512903, "alt_km": 452.8326391031378, "timestamp": "2025-12-06T05:40:08.010128+00:00", "meta": {"OBJECT_NAME": "STARLINK-35652", "OBJECT_ID": "2025-257P", "EPOCH": "2025-12-05T06:00:02.000160", "MEAN_MOTION": 15.43780646, "ECCENTRICITY": 0.00013141, "INCLINATION": 53.1594, "RA_OF_ASC_NODE": 299.65, "ARG_OF_PERICENTER": 84.7819, "MEAN_ANOMALY": 88.4295, "EPHEMERIS_TYPE": 0, "CLASSIFICATION_TYPE": "U", "NORAD_CAT_ID": 66393, "ELEMENT_SET_NO": 999, "REV_AT_EPOCH": 529, "BSTAR": -0.049518766, "MEAN_MOTION_DOT": -0.02026084, "MEAN_MOTION_DDOT": 0}, "tle": {"line1": "1 66393U 25257P   25339.25002315 -.02026084  00000+0 -49519-1 0  9990", "line2": "2 66393  53.1594 299.6500 0001314  84.7819  88.4295 15.43780646  5299"}}, "geometry": {"type": "Point", "coordinates": [173.13455093512903, -48.566328586950966]}}, {"type": "Feature", "properties": {"norad_id": 66394, "name": "STARLINK-35672", "group": "last-30-days", "lat": -49.27617364939037, "lon": 175.5465029766326, "alt_km": 453.7486556202357, "timestamp": "2025-12-06T05:40:08.010138+00:00", "meta": {"OBJECT_NAME": "STARLINK-35672", "OBJECT_ID": "2025-257Q", "EPOCH": "2025-12-05T06:00:02.000160", "MEAN_MOTION": 15.43520746, "ECCENTRICITY": 0.00014818, "INCLINATION": 53.1599, "RA_OF_ASC_NODE": 299.6434, "ARG_OF_PERICENTER": 86.7221, "MEAN_ANOMALY": 89.1592, "EPHEMERIS_TYPE": 0, "CLASSIFICATION_TYPE": "U", "NORAD_CAT_ID": 66394, "ELEMENT_SET_NO": 999, "REV_AT_EPOCH": 529, "BSTAR": -0.049977581, "MEAN_MOTION_DOT": -0.02026812, "MEAN_MOTION_DDOT": 0}, "tle": {"line1": "1 66394U 25257Q   25339.25002315 -.02026812  00000+0 -49978-1 0  9999", "line2": "2 66394  53.1599 299.6434 0001481  86.7221  89.1592 15.43520746  5296"}}, "geometry": {"type": "Point", "coordinates": [175.5465029766326, -49.27617364939037]}}, {"type": "Feature", "properties": {"norad_id": 66395, "name": "STARLINK-35681", "group": "last-30-days", "lat": -51.05457404595544, "lon": -133.15204039195982, "alt_km": 434.92095060023894, "timestamp": "2025-12-06T05:40:08.010150+00:00", "meta": {"OBJECT_NAME": "STARLINK-35681", "OBJECT_ID": "2025-257R", "EPOCH": "2025-12-05T03:38:00.834720", "MEAN_MOTION": 15.47742281, "ECCENTRICITY": 0.00052248, "INCLINATION": 53.1595, "RA_OF_ASC_NODE": 300.0863, "ARG_OF_PERICENTER": 189.6371, "MEAN_ANOMALY": 170.4538, "EPHEMERIS_TYPE": 0, "CLASSIFICATION_TYPE": "U", "NORAD_CAT_ID": 66395, "ELEMENT_SET_NO": 999, "REV_AT_EPOCH": 513, "BSTAR": -0.020111944, "MEAN_MOTION_DOT": -0.00970243, "MEAN_MOTION_DDOT": 0}, "tle": {"line1": "1 66395U 25257R   25339.15139855 -.00970243  00000+0 -20112-1 0  9992", "line2": "2 66395  53.1595 300.0863 0005224 189.6371 170.4538 15.47742281  5135"}}, "geometry": {"type": "Point", "coordinates": [-133.15204039195982, -51.05457404595544]}}, {"type": "Feature", "properties": {"norad_id": 66396, "name": "STARLINK-35669", "group": "last-30-days", "lat": -44.735838929136335, "lon": -113.08925211643917, "alt_km": 422.7274914111622, "timestamp": "2025-12-06T05:40:08.010162+00:00", "meta": {"OBJECT_NAME": "STARLINK-35669", "OBJECT_ID": "2025-257S", "EPOCH": "2025-12-04T09:02:39.769152", "MEAN_MOTION": 15.49365522, "ECCENTRICITY": 0.0001327, "INCLINATION": 53.1591, "RA_OF_ASC_NODE": 303.7835, "ARG_OF_PERICENTER": 104.0612, "MEAN_ANOMALY": 256.0545, "EPHEMERIS_TYPE": 0, "CLASSIFICATION_TYPE": "U", "NORAD_CAT_ID": 66396, "ELEMENT_SET_NO": 999, "REV_AT_EPOCH": 508, "BSTAR": 0.0021205, "MEAN_MOTION_DOT": 0.00119543, "MEAN_MOTION_DDOT": 0}, "tle": {"line1": "1 66396U 25257S   25338.37684918  .00119543  00000+0  21205-2 0  9992", "line2": "2 66396  53.1591 303.7835 0001327 104.0612 256.0545 15.49365522  5084"}}, "geometry": {"type": "Point", "coordinates": [-113.08925211643917, -44.735838929136335]}}, {"type": "Feature", "properties": {"norad_id": 66397, "name": "STARLINK-35510", "group": "last-30-days", "lat": -44.56619405158582, "lon": -112.71427391640931, "alt_km": 423.16088790220147, "timestamp": "2025-12-06T05:40:08.010174+00:00", "meta": {"OBJECT_NAME": "STARLINK-35510", "OBJECT_ID": "2025-257T", "EPOCH": "2025-12-05T06:42:40.882176", "MEAN_MOTION": 15.4930324, "ECCENTRICITY": 0.00015769, "INCLINATION": 53.1591, "RA_OF_ASC_NODE": 299.4635, "ARG_OF_PERICENTER": 55.6954, "MEAN_ANOMALY": 304.4204, "EPHEMERIS_TYPE": 0, "CLASSIFICATION_TYPE": "U", "NORAD_CAT_ID": 66397, "ELEMENT_SET_NO": 999, "REV_AT_EPOCH": 522, "BSTAR": 0.0021734523, "MEAN_MOTION_DOT": 0.00122316, "MEAN_MOTION_DDOT": 0}, "tle": {"line1": "1 66397U 25257T   25339.27963984  .00122316  00000+0  21735-2 0  9996", "line2": "2 66397  53.1591 299.4635 0001576  55.6954 304.4204 15.49303240  5225"}}, "geometry": {"type": "Point", "coordinates": [-112.71427391640931, -44.56619405158582]}}, {"type": "Feature", "properties": {"norad_id": 66398, "name": "STARLINK-35642", "group": "last-30-days", "lat": -44.36026154713702, "lon": -112.26706109713548, "alt_km": 429.4764728899554, "timestamp": "2025-12-06T05:40:08.010185+00:00", "meta": {"OBJECT_NAME": "STARLINK-35642", "OBJECT_ID": "2025-257U", "EPOCH": "2025-12-05T05:08:48.805728", "MEAN_MOTION": 15.49933402, "ECCENTRICITY": 9.989e-05, "INCLINATION": 53.1594, "RA_OF_ASC_NODE": 299.7669, "ARG_OF_PERICENTER": 357.8183, "MEAN_ANOMALY": 2.2822, "EPHEMERIS_TYPE": 0, "CLASSIFICATION_TYPE": "U", "NORAD_CAT_ID": 66398, "ELEMENT_SET_NO": 999, "REV_AT_EPOCH": 521, "BSTAR": -0.025665477, "MEAN_MOTION_DOT": -0.01317318, "MEAN_MOTION_DDOT": 0}, "tle": {"line1": "1 66398U 25257U   25339.21445377 -.01317318  00000+0 -25665-1 0  9998", "line2": "2 66398  53.1594 299.7669 0000998 357.8183   2.2822 15.49933402  5214"}}, "geometry": {"type": "Point", "coordinates": [-112.26706109713548, -44.36026154713702]}}]}